<?xml version="1.0" encoding="UTF-8"?>
<gpx xmlns="http://www.topografix.com/GPX/1/1" xmlns:xsi="http://www.w3.org/2001/XMLSchema-instance" xsi:schemaLocation="http://www.topografix.com/GPX/1/1 http://www.topografix.com/GPX/1/1/gpx.xsd" version="1.1" creator="gpx.py -- https://github.com/tkrajina/gpxpy">
  <metadata>
    <name>Camino de los Olivos Centenarios</name>
    <desc></desc>
  </metadata>
  <trk>
    <name>Camino de los Olivos Centenarios</name>
    <trkseg>
      <trkpt lat="36.9019886" lon="-3.4239376">
        <ele>468</ele>
      </trkpt>
      <trkpt lat="36.9020448" lon="-3.4238914">
        <ele>468</ele>
      </trkpt>
      <trkpt lat="36.9020703" lon="-3.4238011">
        <ele>468</ele>
      </trkpt>
      <trkpt lat="36.9018524" lon="-3.4239372">
        <ele>468</ele>
      </trkpt>
      <trkpt lat="36.9019886" lon="-3.4239376">
        <ele>468</ele>
      </trkpt>
      <trkpt lat="36.9018524" lon="-3.4239372">
        <ele>468</ele>
      </trkpt>
      <trkpt lat="36.9013825" lon="-3.423935">
        <ele>463</ele>
      </trkpt>
      <trkpt lat="36.9011754" lon="-3.423916">
        <ele>463</ele>
      </trkpt>
      <trkpt lat="36.9010523" lon="-3.4238831">
        <ele>463</ele>
      </trkpt>
      <trkpt lat="36.9009621" lon="-3.4238699">
        <ele>463</ele>
      </trkpt>
      <trkpt lat="36.900872" lon="-3.4238706">
        <ele>463</ele>
      </trkpt>
      <trkpt lat="36.9006576" lon="-3.4239005">
        <ele>457</ele>
      </trkpt>
      <trkpt lat="36.9006352" lon="-3.4238802">
        <ele>457</ele>
      </trkpt>
      <trkpt lat="36.9006029" lon="-3.4238654">
        <ele>457</ele>
      </trkpt>
      <trkpt lat="36.9005209" lon="-3.4238545">
        <ele>457</ele>
      </trkpt>
      <trkpt lat="36.9004591" lon="-3.4238438">
        <ele>457</ele>
      </trkpt>
      <trkpt lat="36.9004056" lon="-3.4238231">
        <ele>457</ele>
      </trkpt>
      <trkpt lat="36.9002524" lon="-3.423711">
        <ele>457</ele>
      </trkpt>
      <trkpt lat="36.9000893" lon="-3.4235994">
        <ele>457</ele>
      </trkpt>
      <trkpt lat="36.8998902" lon="-3.4234646">
        <ele>448</ele>
      </trkpt>
      <trkpt lat="36.899505" lon="-3.4232124">
        <ele>450</ele>
      </trkpt>
      <trkpt lat="36.8992137" lon="-3.4230211">
        <ele>450</ele>
      </trkpt>
      <trkpt lat="36.8991248" lon="-3.4229481">
        <ele>440</ele>
      </trkpt>
      <trkpt lat="36.8990245" lon="-3.422794">
        <ele>440</ele>
      </trkpt>
      <trkpt lat="36.8990035" lon="-3.4225783">
        <ele>440</ele>
      </trkpt>
      <trkpt lat="36.8989864" lon="-3.422403">
        <ele>444</ele>
      </trkpt>
      <trkpt lat="36.8989067" lon="-3.4224142">
        <ele>444</ele>
      </trkpt>
      <trkpt lat="36.898716" lon="-3.4224843">
        <ele>444</ele>
      </trkpt>
      <trkpt lat="36.8986236" lon="-3.4225054">
        <ele>440</ele>
      </trkpt>
      <trkpt lat="36.8985319" lon="-3.4224947">
        <ele>444</ele>
      </trkpt>
      <trkpt lat="36.8983802" lon="-3.422477">
        <ele>444</ele>
      </trkpt>
      <trkpt lat="36.898289" lon="-3.422441">
        <ele>434</ele>
      </trkpt>
      <trkpt lat="36.8981002" lon="-3.4223659">
        <ele>434</ele>
      </trkpt>
      <trkpt lat="36.8979629" lon="-3.4222854">
        <ele>434</ele>
      </trkpt>
      <trkpt lat="36.89782" lon="-3.4221817">
        <ele>434</ele>
      </trkpt>
      <trkpt lat="36.8976647" lon="-3.4219514">
        <ele>434</ele>
      </trkpt>
      <trkpt lat="36.8974825" lon="-3.4215988">
        <ele>420</ele>
      </trkpt>
      <trkpt lat="36.8974459" lon="-3.4215497">
        <ele>420</ele>
      </trkpt>
      <trkpt lat="36.8974037" lon="-3.4214436">
        <ele>420</ele>
      </trkpt>
      <trkpt lat="36.8973177" lon="-3.4211368">
        <ele>420</ele>
      </trkpt>
      <trkpt lat="36.8972492" lon="-3.4209134">
        <ele>420</ele>
      </trkpt>
      <trkpt lat="36.8971521" lon="-3.4206708">
        <ele>414</ele>
      </trkpt>
      <trkpt lat="36.8970771" lon="-3.4205414">
        <ele>414</ele>
      </trkpt>
      <trkpt lat="36.8969259" lon="-3.4204292">
        <ele>414</ele>
      </trkpt>
      <trkpt lat="36.8967246" lon="-3.4201735">
        <ele>414</ele>
      </trkpt>
      <trkpt lat="36.896543" lon="-3.4199232">
        <ele>405</ele>
      </trkpt>
      <trkpt lat="36.8962637" lon="-3.4195056">
        <ele>405</ele>
      </trkpt>
      <trkpt lat="36.8961693" lon="-3.4193876">
        <ele>405</ele>
      </trkpt>
      <trkpt lat="36.8960449" lon="-3.4192213">
        <ele>405</ele>
      </trkpt>
      <trkpt lat="36.8959681" lon="-3.4190507">
        <ele>402</ele>
      </trkpt>
      <trkpt lat="36.8958733" lon="-3.4187117">
        <ele>402</ele>
      </trkpt>
      <trkpt lat="36.8957886" lon="-3.4185038">
        <ele>398</ele>
      </trkpt>
      <trkpt lat="36.8949891" lon="-3.4184893">
        <ele>395</ele>
      </trkpt>
      <trkpt lat="36.8947599" lon="-3.418466">
        <ele>395</ele>
      </trkpt>
      <trkpt lat="36.8944467" lon="-3.4184888">
        <ele>395</ele>
      </trkpt>
      <trkpt lat="36.8942558" lon="-3.4184986">
        <ele>395</ele>
      </trkpt>
      <trkpt lat="36.8939994" lon="-3.4185223">
        <ele>390</ele>
      </trkpt>
      <trkpt lat="36.893712" lon="-3.4184649">
        <ele>390</ele>
      </trkpt>
      <trkpt lat="36.8935268" lon="-3.4184339">
        <ele>390</ele>
      </trkpt>
      <trkpt lat="36.8934147" lon="-3.4183701">
        <ele>390</ele>
      </trkpt>
      <trkpt lat="36.8930879" lon="-3.418266">
        <ele>380</ele>
      </trkpt>
      <trkpt lat="36.8928758" lon="-3.4182713">
        <ele>380</ele>
      </trkpt>
      <trkpt lat="36.8926949" lon="-3.418281">
        <ele>380</ele>
      </trkpt>
      <trkpt lat="36.8926048" lon="-3.418263">
        <ele>380</ele>
      </trkpt>
      <trkpt lat="36.892514" lon="-3.4182533">
        <ele>380</ele>
      </trkpt>
      <trkpt lat="36.8925012" lon="-3.4182065">
        <ele>380</ele>
      </trkpt>
      <trkpt lat="36.8924029" lon="-3.4178228">
        <ele>376</ele>
      </trkpt>
      <trkpt lat="36.8923553" lon="-3.4176038">
        <ele>376</ele>
      </trkpt>
      <trkpt lat="36.8923265" lon="-3.4173488">
        <ele>374</ele>
      </trkpt>
      <trkpt lat="36.8922906" lon="-3.4169317">
        <ele>374</ele>
      </trkpt>
      <trkpt lat="36.8921127" lon="-3.4164393">
        <ele>370</ele>
      </trkpt>
      <trkpt lat="36.8919912" lon="-3.4163741">
        <ele>370</ele>
      </trkpt>
      <trkpt lat="36.891475" lon="-3.4164632">
        <ele>367</ele>
      </trkpt>
      <trkpt lat="36.8910786" lon="-3.4164963">
        <ele>367</ele>
      </trkpt>
      <trkpt lat="36.8910115" lon="-3.416515">
        <ele>367</ele>
      </trkpt>
      <trkpt lat="36.8909693" lon="-3.4165604">
        <ele>367</ele>
      </trkpt>
      <trkpt lat="36.8908446" lon="-3.4167034">
        <ele>368</ele>
      </trkpt>
      <trkpt lat="36.8903797" lon="-3.4167598">
        <ele>363</ele>
      </trkpt>
      <trkpt lat="36.8900645" lon="-3.4165899">
        <ele>361</ele>
      </trkpt>
      <trkpt lat="36.890018" lon="-3.4165348">
        <ele>361</ele>
      </trkpt>
      <trkpt lat="36.8899657" lon="-3.4164262">
        <ele>357</ele>
      </trkpt>
      <trkpt lat="36.8898872" lon="-3.41628">
        <ele>357</ele>
      </trkpt>
      <trkpt lat="36.8897808" lon="-3.4161569">
        <ele>357</ele>
      </trkpt>
      <trkpt lat="36.8894077" lon="-3.4160287">
        <ele>357</ele>
      </trkpt>
      <trkpt lat="36.8892447" lon="-3.4159715">
        <ele>357</ele>
      </trkpt>
      <trkpt lat="36.8890796" lon="-3.4158879">
        <ele>352</ele>
      </trkpt>
      <trkpt lat="36.8889658" lon="-3.41587">
        <ele>352</ele>
      </trkpt>
      <trkpt lat="36.8889123" lon="-3.4159059">
        <ele>352</ele>
      </trkpt>
      <trkpt lat="36.8888581" lon="-3.4160329">
        <ele>352</ele>
      </trkpt>
      <trkpt lat="36.8887781" lon="-3.4163296">
        <ele>352</ele>
      </trkpt>
      <trkpt lat="36.8887534" lon="-3.4166059">
        <ele>352</ele>
      </trkpt>
      <trkpt lat="36.8887221" lon="-3.4167632">
        <ele>352</ele>
      </trkpt>
      <trkpt lat="36.8886995" lon="-3.4171572">
        <ele>352</ele>
      </trkpt>
      <trkpt lat="36.8886173" lon="-3.4174398">
        <ele>352</ele>
      </trkpt>
      <trkpt lat="36.8885975" lon="-3.4175829">
        <ele>352</ele>
      </trkpt>
      <trkpt lat="36.8886291" lon="-3.4179531">
        <ele>352</ele>
      </trkpt>
      <trkpt lat="36.8885178" lon="-3.4183165">
        <ele>352</ele>
      </trkpt>
      <trkpt lat="36.8883398" lon="-3.4182455">
        <ele>352</ele>
      </trkpt>
      <trkpt lat="36.888306" lon="-3.418232">
        <ele>343</ele>
      </trkpt>
      <trkpt lat="36.8881318" lon="-3.418212">
        <ele>343</ele>
      </trkpt>
      <trkpt lat="36.8878855" lon="-3.4182219">
        <ele>343</ele>
      </trkpt>
      <trkpt lat="36.887542" lon="-3.4182358">
        <ele>343</ele>
      </trkpt>
      <trkpt lat="36.8874216" lon="-3.4181978">
        <ele>334</ele>
      </trkpt>
      <trkpt lat="36.8873144" lon="-3.4181161">
        <ele>334</ele>
      </trkpt>
      <trkpt lat="36.886989" lon="-3.4177129">
        <ele>334</ele>
      </trkpt>
      <trkpt lat="36.8867134" lon="-3.4173726">
        <ele>339</ele>
      </trkpt>
      <trkpt lat="36.8866386" lon="-3.4173085">
        <ele>327</ele>
      </trkpt>
      <trkpt lat="36.8865449" lon="-3.4172281">
        <ele>327</ele>
      </trkpt>
      <trkpt lat="36.8859647" lon="-3.4168303">
        <ele>327</ele>
      </trkpt>
      <trkpt lat="36.8858626" lon="-3.4167549">
        <ele>327</ele>
      </trkpt>
      <trkpt lat="36.8857865" lon="-3.4166731">
        <ele>313</ele>
      </trkpt>
      <trkpt lat="36.8857018" lon="-3.4165594">
        <ele>322</ele>
      </trkpt>
      <trkpt lat="36.8855667" lon="-3.4163346">
        <ele>322</ele>
      </trkpt>
      <trkpt lat="36.8854077" lon="-3.4160655">
        <ele>322</ele>
      </trkpt>
      <trkpt lat="36.8853795" lon="-3.4160919">
        <ele>322</ele>
      </trkpt>
      <trkpt lat="36.8853483" lon="-3.4161379">
        <ele>322</ele>
      </trkpt>
      <trkpt lat="36.8853049" lon="-3.4162478">
        <ele>322</ele>
      </trkpt>
      <trkpt lat="36.8852684" lon="-3.4162748">
        <ele>322</ele>
      </trkpt>
      <trkpt lat="36.8852233" lon="-3.4162857">
        <ele>322</ele>
      </trkpt>
      <trkpt lat="36.8851604" lon="-3.4161604">
        <ele>322</ele>
      </trkpt>
      <trkpt lat="36.8850858" lon="-3.4159388">
        <ele>322</ele>
      </trkpt>
      <trkpt lat="36.8849762" lon="-3.4157814">
        <ele>313</ele>
      </trkpt>
      <trkpt lat="36.8848247" lon="-3.4157406">
        <ele>313</ele>
      </trkpt>
      <trkpt lat="36.8846475" lon="-3.415796">
        <ele>313</ele>
      </trkpt>
      <trkpt lat="36.8844656" lon="-3.4160292">
        <ele>312</ele>
      </trkpt>
      <trkpt lat="36.884335" lon="-3.4164139">
        <ele>312</ele>
      </trkpt>
      <trkpt lat="36.8842325" lon="-3.4173496">
        <ele>309</ele>
      </trkpt>
      <trkpt lat="36.8842255" lon="-3.4176703">
        <ele>311</ele>
      </trkpt>
      <trkpt lat="36.8842057" lon="-3.4178432">
        <ele>311</ele>
      </trkpt>
      <trkpt lat="36.8841206" lon="-3.4181775">
        <ele>307</ele>
      </trkpt>
      <trkpt lat="36.8840833" lon="-3.4186846">
        <ele>309</ele>
      </trkpt>
      <trkpt lat="36.8840336" lon="-3.4189111">
        <ele>309</ele>
      </trkpt>
      <trkpt lat="36.8839104" lon="-3.4192654">
        <ele>315</ele>
      </trkpt>
      <trkpt lat="36.8837816" lon="-3.4195291">
        <ele>315</ele>
      </trkpt>
      <trkpt lat="36.8837734" lon="-3.4195996">
        <ele>315</ele>
      </trkpt>
      <trkpt lat="36.8837813" lon="-3.4196849">
        <ele>315</ele>
      </trkpt>
      <trkpt lat="36.8837872" lon="-3.4197259">
        <ele>315</ele>
      </trkpt>
      <trkpt lat="36.883821" lon="-3.4199622">
        <ele>315</ele>
      </trkpt>
      <trkpt lat="36.8838721" lon="-3.4201821">
        <ele>318</ele>
      </trkpt>
      <trkpt lat="36.8839118" lon="-3.4203714">
        <ele>318</ele>
      </trkpt>
      <trkpt lat="36.8839053" lon="-3.4204472">
        <ele>318</ele>
      </trkpt>
      <trkpt lat="36.8838662" lon="-3.4205107">
        <ele>318</ele>
      </trkpt>
      <trkpt lat="36.8837632" lon="-3.4206866">
        <ele>318</ele>
      </trkpt>
      <trkpt lat="36.883692" lon="-3.420836">
        <ele>322</ele>
      </trkpt>
      <trkpt lat="36.8836089" lon="-3.421008">
        <ele>322</ele>
      </trkpt>
      <trkpt lat="36.8835537" lon="-3.4211666">
        <ele>322</ele>
      </trkpt>
      <trkpt lat="36.8835381" lon="-3.4212138">
        <ele>322</ele>
      </trkpt>
      <trkpt lat="36.8834575" lon="-3.4215335">
        <ele>322</ele>
      </trkpt>
      <trkpt lat="36.8833642" lon="-3.4219032">
        <ele>324</ele>
      </trkpt>
      <trkpt lat="36.8833439" lon="-3.4220297">
        <ele>324</ele>
      </trkpt>
      <trkpt lat="36.883338" lon="-3.4221358">
        <ele>324</ele>
      </trkpt>
      <trkpt lat="36.8833547" lon="-3.4222378">
        <ele>324</ele>
      </trkpt>
      <trkpt lat="36.8833997" lon="-3.4223827">
        <ele>324</ele>
      </trkpt>
      <trkpt lat="36.8834177" lon="-3.4224405">
        <ele>324</ele>
      </trkpt>
      <trkpt lat="36.883439" lon="-3.4225091">
        <ele>324</ele>
      </trkpt>
      <trkpt lat="36.8834687" lon="-3.4228683">
        <ele>324</ele>
      </trkpt>
      <trkpt lat="36.8834744" lon="-3.4230125">
        <ele>324</ele>
      </trkpt>
      <trkpt lat="36.883456" lon="-3.4231426">
        <ele>324</ele>
      </trkpt>
      <trkpt lat="36.8834335" lon="-3.4233007">
        <ele>324</ele>
      </trkpt>
      <trkpt lat="36.8834263" lon="-3.4233514">
        <ele>327</ele>
      </trkpt>
      <trkpt lat="36.8833777" lon="-3.4234278">
        <ele>327</ele>
      </trkpt>
      <trkpt lat="36.8832983" lon="-3.4234664">
        <ele>318</ele>
      </trkpt>
      <trkpt lat="36.8831616" lon="-3.4234965">
        <ele>318</ele>
      </trkpt>
      <trkpt lat="36.8831174" lon="-3.4235335">
        <ele>318</ele>
      </trkpt>
      <trkpt lat="36.8830158" lon="-3.4236186">
        <ele>318</ele>
      </trkpt>
      <trkpt lat="36.8828912" lon="-3.4237956">
        <ele>318</ele>
      </trkpt>
      <trkpt lat="36.882744" lon="-3.4240345">
        <ele>318</ele>
      </trkpt>
      <trkpt lat="36.8827749" lon="-3.4242239">
        <ele>312</ele>
      </trkpt>
      <trkpt lat="36.8827893" lon="-3.4242468">
        <ele>312</ele>
      </trkpt>
      <trkpt lat="36.8827016" lon="-3.4244503">
        <ele>312</ele>
      </trkpt>
      <trkpt lat="36.882703" lon="-3.4246273">
        <ele>312</ele>
      </trkpt>
      <trkpt lat="36.8827851" lon="-3.4246875">
        <ele>312</ele>
      </trkpt>
      <trkpt lat="36.8828969" lon="-3.4246078">
        <ele>312</ele>
      </trkpt>
      <trkpt lat="36.8830469" lon="-3.4245884">
        <ele>312</ele>
      </trkpt>
      <trkpt lat="36.8833866" lon="-3.4245866">
        <ele>325</ele>
      </trkpt>
      <trkpt lat="36.8834631" lon="-3.4246185">
        <ele>325</ele>
      </trkpt>
      <trkpt lat="36.8835975" lon="-3.4248574">
        <ele>325</ele>
      </trkpt>
      <trkpt lat="36.8836328" lon="-3.4249306">
        <ele>325</ele>
      </trkpt>
      <trkpt lat="36.8836796" lon="-3.4250007">
        <ele>323</ele>
      </trkpt>
      <trkpt lat="36.8837488" lon="-3.425075">
        <ele>323</ele>
      </trkpt>
      <trkpt lat="36.8838254" lon="-3.425098">
        <ele>323</ele>
      </trkpt>
      <trkpt lat="36.8839698" lon="-3.4251723">
        <ele>323</ele>
      </trkpt>
      <trkpt lat="36.8842685" lon="-3.4254856">
        <ele>332</ele>
      </trkpt>
      <trkpt lat="36.8844581" lon="-3.4256112">
        <ele>332</ele>
      </trkpt>
      <trkpt lat="36.8846973" lon="-3.4257227">
        <ele>332</ele>
      </trkpt>
      <trkpt lat="36.884853" lon="-3.4257899">
        <ele>332</ele>
      </trkpt>
      <trkpt lat="36.8850427" lon="-3.4258094">
        <ele>339</ele>
      </trkpt>
      <trkpt lat="36.8852592" lon="-3.425935">
        <ele>341</ele>
      </trkpt>
      <trkpt lat="36.8854701" lon="-3.4260341">
        <ele>341</ele>
      </trkpt>
      <trkpt lat="36.8855876" lon="-3.4260394">
        <ele>341</ele>
      </trkpt>
      <trkpt lat="36.8857688" lon="-3.4259793">
        <ele>341</ele>
      </trkpt>
      <trkpt lat="36.8859188" lon="-3.4260784">
        <ele>348</ele>
      </trkpt>
      <trkpt lat="36.8861991" lon="-3.4263155">
        <ele>348</ele>
      </trkpt>
      <trkpt lat="36.8863675" lon="-3.4265031">
        <ele>348</ele>
      </trkpt>
      <trkpt lat="36.8865048" lon="-3.426742">
        <ele>351</ele>
      </trkpt>
      <trkpt lat="36.8865982" lon="-3.4268853">
        <ele>351</ele>
      </trkpt>
      <trkpt lat="36.8868614" lon="-3.4270782">
        <ele>357</ele>
      </trkpt>
      <trkpt lat="36.8870752" lon="-3.4272198">
        <ele>357</ele>
      </trkpt>
      <trkpt lat="36.8872224" lon="-3.4272658">
        <ele>357</ele>
      </trkpt>
      <trkpt lat="36.8872493" lon="-3.4273171">
        <ele>357</ele>
      </trkpt>
      <trkpt lat="36.8872495" lon="-3.4273674">
        <ele>357</ele>
      </trkpt>
      <trkpt lat="36.8871261" lon="-3.4279064">
        <ele>364</ele>
      </trkpt>
      <trkpt lat="36.8871032" lon="-3.4279481">
        <ele>364</ele>
      </trkpt>
      <trkpt lat="36.8870653" lon="-3.4279683">
        <ele>364</ele>
      </trkpt>
      <trkpt lat="36.8869379" lon="-3.4279524">
        <ele>364</ele>
      </trkpt>
      <trkpt lat="36.8869095" lon="-3.4279645">
        <ele>364</ele>
      </trkpt>
      <trkpt lat="36.8868218" lon="-3.4280019">
        <ele>364</ele>
      </trkpt>
      <trkpt lat="36.8866839" lon="-3.4281124">
        <ele>364</ele>
      </trkpt>
      <trkpt lat="36.8865946" lon="-3.428188">
        <ele>362</ele>
      </trkpt>
      <trkpt lat="36.8863581" lon="-3.4284354">
        <ele>366</ele>
      </trkpt>
      <trkpt lat="36.8862908" lon="-3.4285304">
        <ele>366</ele>
      </trkpt>
      <trkpt lat="36.8862344" lon="-3.4286231">
        <ele>366</ele>
      </trkpt>
      <trkpt lat="36.8862245" lon="-3.4287298">
        <ele>366</ele>
      </trkpt>
      <trkpt lat="36.8862179" lon="-3.4288526">
        <ele>366</ele>
      </trkpt>
      <trkpt lat="36.8862357" lon="-3.4290142">
        <ele>366</ele>
      </trkpt>
      <trkpt lat="36.886245" lon="-3.4290978">
        <ele>366</ele>
      </trkpt>
      <trkpt lat="36.8862853" lon="-3.429266">
        <ele>368</ele>
      </trkpt>
      <trkpt lat="36.8863202" lon="-3.4293871">
        <ele>368</ele>
      </trkpt>
      <trkpt lat="36.8863745" lon="-3.4294616">
        <ele>368</ele>
      </trkpt>
      <trkpt lat="36.8864394" lon="-3.42954">
        <ele>368</ele>
      </trkpt>
      <trkpt lat="36.8865389" lon="-3.429632">
        <ele>368</ele>
      </trkpt>
      <trkpt lat="36.8868331" lon="-3.4297397">
        <ele>376</ele>
      </trkpt>
      <trkpt lat="36.8869747" lon="-3.4297627">
        <ele>376</ele>
      </trkpt>
      <trkpt lat="36.8870136" lon="-3.4298041">
        <ele>376</ele>
      </trkpt>
      <trkpt lat="36.887017" lon="-3.4298627">
        <ele>376</ele>
      </trkpt>
      <trkpt lat="36.8869936" lon="-3.4299726">
        <ele>376</ele>
      </trkpt>
      <trkpt lat="36.8869619" lon="-3.4300653">
        <ele>379</ele>
      </trkpt>
      <trkpt lat="36.8869675" lon="-3.4301062">
        <ele>379</ele>
      </trkpt>
      <trkpt lat="36.8869945" lon="-3.4301608">
        <ele>379</ele>
      </trkpt>
      <trkpt lat="36.8871558" lon="-3.4303643">
        <ele>379</ele>
      </trkpt>
      <trkpt lat="36.8872917" lon="-3.4305466">
        <ele>379</ele>
      </trkpt>
      <trkpt lat="36.8873702" lon="-3.4306165">
        <ele>379</ele>
      </trkpt>
      <trkpt lat="36.8874638" lon="-3.4307294">
        <ele>379</ele>
      </trkpt>
      <trkpt lat="36.8875142" lon="-3.4308008">
        <ele>383</ele>
      </trkpt>
      <trkpt lat="36.8875357" lon="-3.4308074">
        <ele>383</ele>
      </trkpt>
      <trkpt lat="36.8875485" lon="-3.4308112">
        <ele>383</ele>
      </trkpt>
      <trkpt lat="36.8877308" lon="-3.4307821">
        <ele>383</ele>
      </trkpt>
      <trkpt lat="36.8878587" lon="-3.430801">
        <ele>383</ele>
      </trkpt>
      <trkpt lat="36.8879408" lon="-3.4308215">
        <ele>383</ele>
      </trkpt>
      <trkpt lat="36.888097" lon="-3.4308847">
        <ele>388</ele>
      </trkpt>
      <trkpt lat="36.8881675" lon="-3.4309065">
        <ele>388</ele>
      </trkpt>
      <trkpt lat="36.8882242" lon="-3.4309198">
        <ele>388</ele>
      </trkpt>
      <trkpt lat="36.8883193" lon="-3.4309253">
        <ele>388</ele>
      </trkpt>
      <trkpt lat="36.8884517" lon="-3.4309184">
        <ele>391</ele>
      </trkpt>
      <trkpt lat="36.8886533" lon="-3.4308864">
        <ele>391</ele>
      </trkpt>
      <trkpt lat="36.8890963" lon="-3.4308811">
        <ele>391</ele>
      </trkpt>
      <trkpt lat="36.8891826" lon="-3.4309023">
        <ele>395</ele>
      </trkpt>
      <trkpt lat="36.8892002" lon="-3.4309376">
        <ele>395</ele>
      </trkpt>
      <trkpt lat="36.8892152" lon="-3.4309678">
        <ele>395</ele>
      </trkpt>
      <trkpt lat="36.8892307" lon="-3.4310722">
        <ele>395</ele>
      </trkpt>
      <trkpt lat="36.8892888" lon="-3.4311624">
        <ele>395</ele>
      </trkpt>
      <trkpt lat="36.8896553" lon="-3.4312792">
        <ele>395</ele>
      </trkpt>
      <trkpt lat="36.8897827" lon="-3.4312615">
        <ele>395</ele>
      </trkpt>
      <trkpt lat="36.8898882" lon="-3.431243">
        <ele>395</ele>
      </trkpt>
      <trkpt lat="36.8899939" lon="-3.4312337">
        <ele>395</ele>
      </trkpt>
      <trkpt lat="36.8902499" lon="-3.4312693">
        <ele>399</ele>
      </trkpt>
      <trkpt lat="36.8903554" lon="-3.4312717">
        <ele>399</ele>
      </trkpt>
      <trkpt lat="36.8904602" lon="-3.4312789">
        <ele>399</ele>
      </trkpt>
      <trkpt lat="36.8907151" lon="-3.431225">
        <ele>399</ele>
      </trkpt>
      <trkpt lat="36.8909447" lon="-3.4311748">
        <ele>400</ele>
      </trkpt>
      <trkpt lat="36.8912221" lon="-3.4311554">
        <ele>400</ele>
      </trkpt>
      <trkpt lat="36.8915844" lon="-3.4311943">
        <ele>400</ele>
      </trkpt>
      <trkpt lat="36.891931" lon="-3.4312656">
        <ele>405</ele>
      </trkpt>
      <trkpt lat="36.8920811" lon="-3.4312792">
        <ele>405</ele>
      </trkpt>
      <trkpt lat="36.8923146" lon="-3.4312527">
        <ele>405</ele>
      </trkpt>
      <trkpt lat="36.8926605" lon="-3.4311427">
        <ele>409</ele>
      </trkpt>
      <trkpt lat="36.8927987" lon="-3.4310987">
        <ele>409</ele>
      </trkpt>
      <trkpt lat="36.8929968" lon="-3.4310704">
        <ele>409</ele>
      </trkpt>
      <trkpt lat="36.8931921" lon="-3.431097">
        <ele>409</ele>
      </trkpt>
      <trkpt lat="36.8935417" lon="-3.431127">
        <ele>411</ele>
      </trkpt>
      <trkpt lat="36.8935659" lon="-3.431136">
        <ele>411</ele>
      </trkpt>
      <trkpt lat="36.8940059" lon="-3.4313005">
        <ele>411</ele>
      </trkpt>
      <trkpt lat="36.8942366" lon="-3.4312828">
        <ele>416</ele>
      </trkpt>
      <trkpt lat="36.8944517" lon="-3.4312031">
        <ele>416</ele>
      </trkpt>
      <trkpt lat="36.8946597" lon="-3.431074">
        <ele>416</ele>
      </trkpt>
      <trkpt lat="36.8948352" lon="-3.4309076">
        <ele>416</ele>
      </trkpt>
      <trkpt lat="36.8949531" lon="-3.4308657">
        <ele>416</ele>
      </trkpt>
      <trkpt lat="36.8950545" lon="-3.4308297">
        <ele>420</ele>
      </trkpt>
      <trkpt lat="36.8956206" lon="-3.4307076">
        <ele>420</ele>
      </trkpt>
      <trkpt lat="36.8956659" lon="-3.430743">
        <ele>420</ele>
      </trkpt>
      <trkpt lat="36.8957296" lon="-3.4308811">
        <ele>423</ele>
      </trkpt>
      <trkpt lat="36.8958485" lon="-3.4309182">
        <ele>429</ele>
      </trkpt>
      <trkpt lat="36.8960424" lon="-3.4309253">
        <ele>429</ele>
      </trkpt>
      <trkpt lat="36.8961924" lon="-3.4309589">
        <ele>429</ele>
      </trkpt>
      <trkpt lat="36.8963693" lon="-3.431097">
        <ele>429</ele>
      </trkpt>
      <trkpt lat="36.8964695" lon="-3.4311558">
        <ele>429</ele>
      </trkpt>
      <trkpt lat="36.8965688" lon="-3.4311717">
        <ele>429</ele>
      </trkpt>
      <trkpt lat="36.8967403" lon="-3.4305486">
        <ele>432</ele>
      </trkpt>
      <trkpt lat="36.8967939" lon="-3.4304725">
        <ele>432</ele>
      </trkpt>
      <trkpt lat="36.8968921" lon="-3.4303279">
        <ele>432</ele>
      </trkpt>
      <trkpt lat="36.8969893" lon="-3.4301548">
        <ele>432</ele>
      </trkpt>
      <trkpt lat="36.8971104" lon="-3.4299108">
        <ele>429</ele>
      </trkpt>
      <trkpt lat="36.8971645" lon="-3.4297133">
        <ele>429</ele>
      </trkpt>
      <trkpt lat="36.8972164" lon="-3.4294396">
        <ele>429</ele>
      </trkpt>
      <trkpt lat="36.8972701" lon="-3.4293964">
        <ele>429</ele>
      </trkpt>
      <trkpt lat="36.8973646" lon="-3.429367">
        <ele>429</ele>
      </trkpt>
      <trkpt lat="36.8974074" lon="-3.4293273">
        <ele>429</ele>
      </trkpt>
      <trkpt lat="36.8974374" lon="-3.42925">
        <ele>429</ele>
      </trkpt>
      <trkpt lat="36.8974871" lon="-3.429095">
        <ele>429</ele>
      </trkpt>
      <trkpt lat="36.8975698" lon="-3.4288913">
        <ele>439</ele>
      </trkpt>
      <trkpt lat="36.8976441" lon="-3.4287">
        <ele>439</ele>
      </trkpt>
      <trkpt lat="36.8977078" lon="-3.4285385">
        <ele>439</ele>
      </trkpt>
      <trkpt lat="36.8977919" lon="-3.4283896">
        <ele>439</ele>
      </trkpt>
      <trkpt lat="36.8978222" lon="-3.4283172">
        <ele>434</ele>
      </trkpt>
      <trkpt lat="36.897956" lon="-3.4280809">
        <ele>434</ele>
      </trkpt>
      <trkpt lat="36.8980607" lon="-3.4278331">
        <ele>434</ele>
      </trkpt>
      <trkpt lat="36.8981341" lon="-3.4276929">
        <ele>434</ele>
      </trkpt>
      <trkpt lat="36.8982" lon="-3.4276104">
        <ele>434</ele>
      </trkpt>
      <trkpt lat="36.8983114" lon="-3.4275843">
        <ele>434</ele>
      </trkpt>
      <trkpt lat="36.8984056" lon="-3.4275411">
        <ele>445</ele>
      </trkpt>
      <trkpt lat="36.8984676" lon="-3.4274899">
        <ele>428</ele>
      </trkpt>
      <trkpt lat="36.8988373" lon="-3.4271555">
        <ele>428</ele>
      </trkpt>
      <trkpt lat="36.8990966" lon="-3.4268778">
        <ele>428</ele>
      </trkpt>
      <trkpt lat="36.8991568" lon="-3.4268087">
        <ele>428</ele>
      </trkpt>
      <trkpt lat="36.8993172" lon="-3.426652">
        <ele>428</ele>
      </trkpt>
      <trkpt lat="36.8995634" lon="-3.42656">
        <ele>428</ele>
      </trkpt>
      <trkpt lat="36.8998464" lon="-3.4265033">
        <ele>428</ele>
      </trkpt>
      <trkpt lat="36.8998748" lon="-3.426372">
        <ele>428</ele>
      </trkpt>
      <trkpt lat="36.9000186" lon="-3.4263843">
        <ele>432</ele>
      </trkpt>
      <trkpt lat="36.9000634" lon="-3.4263227">
        <ele>432</ele>
      </trkpt>
      <trkpt lat="36.9001924" lon="-3.4261143">
        <ele>432</ele>
      </trkpt>
      <trkpt lat="36.9002545" lon="-3.4258443">
        <ele>432</ele>
      </trkpt>
      <trkpt lat="36.9002726" lon="-3.4256636">
        <ele>441</ele>
      </trkpt>
      <trkpt lat="36.9002416" lon="-3.4256329">
        <ele>441</ele>
      </trkpt>
      <trkpt lat="36.9001505" lon="-3.4255848">
        <ele>441</ele>
      </trkpt>
      <trkpt lat="36.9000999" lon="-3.4255772">
        <ele>441</ele>
      </trkpt>
      <trkpt lat="36.8999728" lon="-3.4255633">
        <ele>433</ele>
      </trkpt>
      <trkpt lat="36.8999398" lon="-3.4254462">
        <ele>433</ele>
      </trkpt>
      <trkpt lat="36.900103" lon="-3.4254436">
        <ele>441</ele>
      </trkpt>
      <trkpt lat="36.9002878" lon="-3.4254431">
        <ele>441</ele>
      </trkpt>
      <trkpt lat="36.900552" lon="-3.4254268">
        <ele>441</ele>
      </trkpt>
      <trkpt lat="36.9010293" lon="-3.425505">
        <ele>449</ele>
      </trkpt>
      <trkpt lat="36.9011053" lon="-3.4254608">
        <ele>449</ele>
      </trkpt>
      <trkpt lat="36.9012672" lon="-3.4254872">
        <ele>449</ele>
      </trkpt>
      <trkpt lat="36.9012816" lon="-3.4254081">
        <ele>449</ele>
      </trkpt>
      <trkpt lat="36.9012944" lon="-3.4253">
        <ele>449</ele>
      </trkpt>
      <trkpt lat="36.9013203" lon="-3.4251669">
        <ele>449</ele>
      </trkpt>
      <trkpt lat="36.9013566" lon="-3.425076">
        <ele>449</ele>
      </trkpt>
      <trkpt lat="36.9014982" lon="-3.4247866">
        <ele>461</ele>
      </trkpt>
      <trkpt lat="36.9015221" lon="-3.4248143">
        <ele>461</ele>
      </trkpt>
      <trkpt lat="36.9015343" lon="-3.4248203">
        <ele>461</ele>
      </trkpt>
      <trkpt lat="36.9015511" lon="-3.4248247">
        <ele>461</ele>
      </trkpt>
      <trkpt lat="36.9016384" lon="-3.4248119">
        <ele>461</ele>
      </trkpt>
      <trkpt lat="36.9016647" lon="-3.4247953">
        <ele>461</ele>
      </trkpt>
      <trkpt lat="36.9016743" lon="-3.4247822">
        <ele>468</ele>
      </trkpt>
      <trkpt lat="36.9017435" lon="-3.424375">
        <ele>468</ele>
      </trkpt>
      <trkpt lat="36.901802" lon="-3.4243914">
        <ele>468</ele>
      </trkpt>
      <trkpt lat="36.9018524" lon="-3.4239372">
        <ele>468</ele>
      </trkpt>
    </trkseg>
  </trk>
</gpx>